OBJECT_NAME,OBJECT_ID,EPOCH,MEAN_MOTION,ECCENTRICITY,INCLINATION,RA_OF_ASC_NODE,ARG_OF_PERICENTER,MEAN_ANOMALY,EPHEMERIS_TYPE,CLASSIFICATION_TYPE,NORAD_CAT_ID,ELEMENT_SET_NO,REV_AT_EPOCH,BSTAR,MEAN_MOTION_DOT,MEAN_MOTION_DDOT
ONEWEB-0578,2023-043X,2026-07-12T16:30:44.839872,13.21826533,.0002137,87.9237,238.8987,86.4959,273.6419,0,U,56067,999,16160,.25193E-3,.117E-5,0
ONEWEB-0579,2023-043Y,2026-07-12T14:29:35.999232,13.21827464,.0002168,87.9259,238.9115,106.9274,253.2097,0,U,56068,999,16160,.11252E-3,.59E-6,0
ONEWEB-0581,2023-043Z,2026-07-12T12:47:52.607328,13.16595240,.00015008,87.9076,223.7499,88.3111,271.8192,0,U,56069,999,16229,.3610213E-3,.151E-5,0
ONEWEB-0609,2023-043AA,2026-07-12T15:51:14.442912,13.15547093,.0002152,87.8984,254.1356,97.8941,262.2434,0,U,56070,999,15978,-.32673E-3,-.11E-5,0
ONEWEB-0613,2023-043AB,2026-07-12T15:47:49.367328,13.15547973,.0002215,87.8988,254.1482,104.8343,255.3033,0,U,56071,999,15978,-.14435E-3,-.42E-6,0
ONEWEB-0630,2023-043AC,2026-07-12T15:40:58.569024,13.15549391,.000214,87.8985,254.1241,99.8148,260.3224,0,U,56072,999,15977,-.53076E-3,-.187E-5,0
ONEWEB-0632,2023-043AD,2026-07-12T17:23:39.766848,13.15547794,.0001882,87.8989,254.1253,98.8770,261.2574,0,U,56073,999,15978,-.17213E-3,-.52E-6,0
ONEWEB-0633,2023-043AE,2026-07-12T17:14:32.109216,13.15549147,.0002366,87.8993,254.1043,104.4260,255.7133,0,U,56074,999,15976,.14119E-3,.66E-6,0
ONEWEB-0634,2023-043AF,2026-07-12T16:54:00.184320,13.15548008,.0002331,87.8989,254.1450,92.4356,267.7041,0,U,56075,999,15975,.20726E-3,.91E-6,0
ONEWEB-0635,2023-043AG,2026-07-12T16:47:09.257280,13.15547382,.0001835,87.8997,254.1109,93.9011,266.2329,0,U,56076,999,15978,.43976E-3,.178E-5,0
ONEWEB-0636,2023-043AH,2026-07-12T16:35:44.189952,13.15547633,.0001853,87.8990,254.1185,101.5058,258.6280,0,U,56077,999,15976,.21955E-3,.95E-6,0
ONEWEB-0637,2023-043AJ,2026-07-12T16:26:36.915072,13.15548282,.0002001,87.8983,254.1346,90.0065,270.1295,0,U,56078,999,15978,.28992E-3,.122E-5,0
ONEWEB-0647,2023-043AK,2026-07-12T16:19:46.166016,13.15549087,.0001984,87.8988,254.1470,97.8258,262.3098,0,U,56079,999,15977,.10683E-3,.53E-6,0
ONEWEB-0651,2023-043AL,2026-07-12T19:51:58.465728,13.15548014,.000187,87.8984,254.1117,93.3715,266.7629,0,U,56080,999,16099,.20734E-3,.91E-6,0
ONEWEB-0718,2023-043AM,2026-07-12T16:06:04.680000,13.15549252,.0002558,87.9000,254.1216,96.8992,263.2429,0,U,56081,999,15978,-.22296E-3,-.71E-6,0
ONEWEB-0561,2023-068A,2026-07-12T17:27:53.150400,13.20769590,.000168,87.9189,269.3539,108.9500,251.1815,0,U,56710,999,15287,.62215E-4,.38E-6,0
ONEWEB-0668,2023-068B,2026-07-12T14:00:50.078880,13.16595039,.000235,87.9076,223.7283,82.6712,277.4686,0,U,56711,999,15512,.22426E-4,.21E-6,0
ONEWEB-0676,2023-068C,2026-07-12T14:12:14.613984,13.16594233,.0001725,87.9075,223.7334,93.9054,266.2275,0,U,56712,999,15504,.29783E-5,.14E-6,0
ONEWEB-0677,2023-068D,2026-07-12T17:10:56.701920,13.20771524,.0001894,87.9186,269.3485,90.4744,269.6606,0,U,56713,999,15317,.72107E-4,.42E-6,0
ONEWEB-0678,2023-068E,2026-07-12T17:09:58.294656,13.15547874,.0002004,87.8997,254.1092,105.8759,254.2592,0,U,56714,999,15264,.41311E-4,.28E-6,0
ONEWEB-0679,2023-068F,2026-07-12T15:02:23.669376,13.16594183,.0002051,87.9087,223.7160,77.2771,282.8589,0,U,56715,999,15507,.14008E-3,.66E-6,0
ONEWEB-0680,2023-068G,2026-07-12T16:21:02.102976,13.21825787,.0002329,87.9242,238.8994,81.2146,278.9251,0,U,56716,999,15446,.13338E-3,.68E-6,0
ONEWEB-0681,2023-068H,2026-07-12T15:53:10.544640,13.21827576,.0001092,87.9240,238.9038,89.2485,270.8774,0,U,56717,999,15445,.71754E-4,.43E-6,0
ONEWEB-0682,2023-068J,2026-07-12T15:54:40.493088,13.15548172,.000206,87.8989,254.1206,89.2252,270.9114,0,U,56718,999,15280,-.11678E-3,-.31E-6,0
ONEWEB-0683,2023-068K,2026-07-12T16:28:53.848704,13.15548327,.000218,87.9010,254.1130,94.6429,265.4951,0,U,56719,999,15277,.36163E-3,.149E-5,0
ONEWEB-0684,2023-068L,2026-07-12T16:40:18.256800,13.15549747,.0002931,87.8992,254.1029,127.2347,232.9051,0,U,56720,999,15260,-.49182E-4,-.6E-7,0
ONEWEB-0686,2023-068M,2026-07-12T15:54:50.358240,13.16593292,.0002417,87.9066,223.7314,94.4602,265.6805,0,U,56721,999,15506,-.20681E-3,-.66E-6,0
ONEWEB-0694,2023-068N,2026-07-12T14:14:31.272864,13.16593326,.0002298,87.9088,223.7147,84.7662,275.3731,0,U,56722,999,15511,-.33212E-4,0,0
ONEWEB-0696,2023-068P,2026-07-12T17:28:12.908352,13.15549745,.0002008,87.8985,254.1335,108.2260,251.9089,0,U,56723,999,15272,-.17376E-3,-.53E-6,0
ONEWEB-0703,2023-068Q,2026-07-12T15:52:22.907136,13.15548101,.0001641,87.8986,254.1272,123.0948,237.0340,0,U,56724,999,15260,-.15879E-3,-.47E-6,0
ONEWEB-0721,2023-068R,2026-07-12T17:06:15.012000,13.22470848,.0001796,86.6749,77.3675,78.9800,281.1535,0,U,56725,999,16131,.80124E-4,.48E-6,0
